{"type": "FeatureCollection", "features": [ {"type": "Feature", "properties": {"norad_id": 32260, "name": "GPS BIIRM-4 (PRN 15)", "group": "gnss", "lat": 52.99725179076746, "lon": 162.52884127146265, "alt_km": 19741.725137374062, "timestamp": "2025-12-13T20:38:51.245465+00:00", "meta": {"OBJECT_NAME": "GPS BIIRM-4 (PRN 15)", "OBJECT_ID": "2007-047A", "EPOCH": "2025-12-13T06:02:59.943552", "MEAN_MOTION": 2.00564506, "ECCENTRICITY": 0.01641392, "INCLINATION": 53.9555, "RA_OF_ASC_NODE": 87.7372, "ARG_OF_PERICENTER": 85.2518, "MEAN_ANOMALY": 276.6128, "EPHEMERIS_TYPE": 0, "CLASSIFICATION_TYPE": "U", "NORAD_CAT_ID": 32260, "ELEMENT_SET_NO": 999, "REV_AT_EPOCH": 13308, "BSTAR": 0, "MEAN_MOTION_DOT": -3.9e-07, "MEAN_MOTION_DDOT": 0}, "tle": {"line1": "1 32260U 07047A   25347.25208268 -.00000039  00000+0  00000+0 0  9996", "line2": "2 32260  53.9555  87.7372 0164139  85.2518 276.6128  2.00564506133089"}}, "geometry": {"type": "Point", "coordinates": [162.52884127146265, 52.99725179076746]}}, {"type": "Feature", "properties": {"norad_id": 32275, "name": "COSMOS 2433 (720)", "group": "gnss", "lat": -45.40277898294795, "lon": 169.44997208320066, "alt_km": 19121.99577830039, "timestamp": "2025-12-13T20:38:51.245478+00:00", "meta": {"OBJECT_NAME": "COSMOS 2433 (720)", "OBJECT_ID": "2007-052A", "EPOCH": "2025-12-10T06:34:19.673184", "MEAN_MOTION": 2.13103813, "ECCENTRICITY": 0.00055546, "INCLINATION": 65.6847, "RA_OF_ASC_NODE": 322.2886, "ARG_OF_PERICENTER": 252.6006, "MEAN_ANOMALY": 107.3381, "EPHEMERIS_TYPE": 0, "CLASSIFICATION_TYPE": "U", "NORAD_CAT_ID": 32275, "ELEMENT_SET_NO": 999, "REV_AT_EPOCH": 14103, "BSTAR": 0, "MEAN_MOTION_DOT": -5e-07, "MEAN_MOTION_DDOT": 0}, "tle": {"line1": "1 32275U 07052A   25344.27383881 -.00000050  00000+0  00000+0 0  9995", "line2": "2 32275  65.6847 322.2886 0005554 252.6006 107.3381  2.13103813141032"}}, "geometry": {"type": "Point", "coordinates": [169.44997208320066, -45.40277898294795]}}, {"type": "Feature", "properties": {"norad_id": 32276, "name": "COSMOS 2432 (719)", "group": "gnss", "lat": 3.8265778142730555, "lon": 140.55110874196237, "alt_km": 19150.43173572087, "timestamp": "2025-12-13T20:38:51.245490+00:00", "meta": {"OBJECT_NAME": "COSMOS 2432 (719)", "OBJECT_ID": "2007-052B", "EPOCH": "2025-12-10T13:56:19.351392", "MEAN_MOTION": 2.13102999, "ECCENTRICITY": 0.0011254, "INCLINATION": 65.7001, "RA_OF_ASC_NODE": 322.4023, "ARG_OF_PERICENTER": 311.5771, "MEAN_ANOMALY": 228.309, "EPHEMERIS_TYPE": 0, "CLASSIFICATION_TYPE": "U", "NORAD_CAT_ID": 32276, "ELEMENT_SET_NO": 999, "REV_AT_EPOCH": 14106, "BSTAR": 0, "MEAN_MOTION_DOT": -5e-07, "MEAN_MOTION_DDOT": 0}, "tle": {"line1": "1 32276U 07052B   25344.58077953 -.00000050  00000+0  00000+0 0  9990", "line2": "2 32276  65.7001 322.4023 0011254 311.5771 228.3090  2.13102999141067"}}, "geometry": {"type": "Point", "coordinates": [140.55110874196237, 3.8265778142730555]}}, {"type": "Feature", "properties": {"norad_id": 32384, "name": "GPS BIIRM-5 (PRN 29)", "group": "gnss", "lat": -24.72746701104682, "lon": 120.25527655043443, "alt_km": 20126.998725723162, "timestamp": "2025-12-13T20:38:51.245502+00:00", "meta": {"OBJECT_NAME": "GPS BIIRM-5 (PRN 29)", "OBJECT_ID": "2007-062A", "EPOCH": "2025-12-13T07:26:31.680096", "MEAN_MOTION": 2.00577339, "ECCENTRICITY": 0.00322377, "INCLINATION": 55.1816, "RA_OF_ASC_NODE": 281.623, "ARG_OF_PERICENTER": 162.4378, "MEAN_ANOMALY": 10.5516, "EPHEMERIS_TYPE": 0, "CLASSIFICATION_TYPE": "U", "NORAD_CAT_ID": 32384, "ELEMENT_SET_NO": 999, "REV_AT_EPOCH": 13178, "BSTAR": 0, "MEAN_MOTION_DOT": -8e-07, "MEAN_MOTION_DDOT": 0}, "tle": {"line1": "1 32384U 07062A   25347.31008889 -.00000080  00000+0  00000+0 0  9990", "line2": "2 32384  55.1816 281.6230 0032237 162.4378  10.5516  2.00577339131782"}}, "geometry": {"type": "Point", "coordinates": [120.25527655043443, -24.72746701104682]}}, {"type": "Feature", "properties": {"norad_id": 32393, "name": "COSMOS 2434 (721)", "group": "gnss", "lat": 49.82781185375391, "lon": -16.583689128158564, "alt_km": 19117.349992302297, "timestamp": "2025-12-13T20:38:51.245513+00:00", "meta": {"OBJECT_NAME": "COSMOS 2434 (721)", "OBJECT_ID": "2007-065A", "EPOCH": "2025-12-10T15:35:17.035872", "MEAN_MOTION": 2.13101152, "ECCENTRICITY": 0.0004304, "INCLINATION": 64.3147, "RA_OF_ASC_NODE": 198.2738, "ARG_OF_PERICENTER": 71.148, "MEAN_ANOMALY": 107.63, "EPHEMERIS_TYPE": 0, "CLASSIFICATION_TYPE": "U", "NORAD_CAT_ID": 32393, "ELEMENT_SET_NO": 999, "REV_AT_EPOCH": 13975, "BSTAR": 0, "MEAN_MOTION_DOT": 4.8e-07, "MEAN_MOTION_DDOT": 0}, "tle": {"line1": "1 32393U 07065A   25344.64950273  .00000048  00000+0  00000+0 0  9992", "line2": "2 32393  64.3147 198.2738 0004304  71.1480 107.6300  2.13101152139755"}}, "geometry": {"type": "Point", "coordinates": [-16.583689128158564, 49.82781185375391]}}, {"type": "Feature", "properties": {"norad_id": 32395, "name": "COSMOS 2436 (723)", "group": "gnss", "lat": -60.439268818137315, "lon": 76.24813178795054, "alt_km": 19155.14913307437, "timestamp": "2025-12-13T20:38:51.245525+00:00", "meta": {"OBJECT_NAME": "COSMOS 2436 (723)", "OBJECT_ID": "2007-065C", "EPOCH": "2025-12-08T02:01:11.627904", "MEAN_MOTION": 2.13100022, "ECCENTRICITY": 0.00177472, "INCLINATION": 64.3236, "RA_OF_ASC_NODE": 198.4308, "ARG_OF_PERICENTER": 9.2257, "MEAN_ANOMALY": 134.6131, "EPHEMERIS_TYPE": 0, "CLASSIFICATION_TYPE": "U", "NORAD_CAT_ID": 32395, "ELEMENT_SET_NO": 999, "REV_AT_EPOCH": 13965, "BSTAR": 0, "MEAN_MOTION_DOT": 5.1e-07, "MEAN_MOTION_DDOT": 0}, "tle": {"line1": "1 32395U 07065C   25342.08416236  .00000051  00000+0  00000+0 0  9990", "line2": "2 32395  64.3236 198.4308 0017747   9.2257 134.6131  2.13100022139656"}}, "geometry": {"type": "Point", "coordinates": [76.24813178795054, -60.439268818137315]}}, {"type": "Feature", "properties": {"norad_id": 32711, "name": "GPS BIIRM-6 (PRN 07)", "group": "gnss", "lat": 36.85792001335129, "lon": -55.07001776246135, "alt_km": 20374.114900432673, "timestamp": "2025-12-13T20:38:51.245537+00:00", "meta": {"OBJECT_NAME": "GPS BIIRM-6 (PRN 07)", "OBJECT_ID": "2008-012A", "EPOCH": "2025-12-12T16:10:17.016384", "MEAN_MOTION": 2.00565624, "ECCENTRICITY": 0.02024443, "INCLINATION": 54.4771, "RA_OF_ASC_NODE": 157.3754, "ARG_OF_PERICENTER": 244.95, "MEAN_ANOMALY": 112.9478, "EPHEMERIS_TYPE": 0, "CLASSIFICATION_TYPE": "U", "NORAD_CAT_ID": 32711, "ELEMENT_SET_NO": 999, "REV_AT_EPOCH": 13001, "BSTAR": 0, "MEAN_MOTION_DOT": 9.7e-07, "MEAN_MOTION_DDOT": 0}, "tle": {"line1": "1 32711U 08012A   25346.67380806  .00000097  00000+0  00000+0 0  9997", "line2": "2 32711  54.4771 157.3754 0202444 244.9500 112.9478  2.00565624130013"}}, "geometry": {"type": "Point", "coordinates": [-55.07001776246135, 36.85792001335129]}}, {"type": "Feature", "properties": {"norad_id": 35752, "name": "GPS BIIRM-8 (PRN 05)", "group": "gnss", "lat": 20.39044712103395, "lon": -159.71206409323437, "alt_km": 20139.324599324143, "timestamp": "2025-12-13T20:38:51.245549+00:00", "meta": {"OBJECT_NAME": "GPS BIIRM-8 (PRN 05)", "OBJECT_ID": "2009-043A", "EPOCH": "2025-12-11T15:37:32.913696", "MEAN_MOTION": 2.00565741, "ECCENTRICITY": 0.00518358, "INCLINATION": 56.0903, "RA_OF_ASC_NODE": 34.8259, "ARG_OF_PERICENTER": 81.9315, "MEAN_ANOMALY": 277.4877, "EPHEMERIS_TYPE": 0, "CLASSIFICATION_TYPE": "U", "NORAD_CAT_ID": 35752, "ELEMENT_SET_NO": 999, "REV_AT_EPOCH": 11959, "BSTAR": 0, "MEAN_MOTION_DOT": -9.6e-07, "MEAN_MOTION_DDOT": 0}, "tle": {"line1": "1 35752U 09043A   25345.65107539 -.00000096  00000+0  00000+0 0  9997", "line2": "2 35752  56.0903  34.8259 0051835  81.9315 277.4877  2.00565741119594"}}, "geometry": {"type": "Point", "coordinates": [-159.71206409323437, 20.39044712103395]}}, {"type": "Feature", "properties": {"norad_id": 36111, "name": "COSMOS 2456 (730)", "group": "gnss", "lat": -63.42727123048571, "lon": 7.958090458973841, "alt_km": 19129.519197652542, "timestamp": "2025-12-13T20:38:51.245560+00:00", "meta": {"OBJECT_NAME": "COSMOS 2456 (730)", "OBJECT_ID": "2009-070A", "EPOCH": "2025-12-09T05:47:54.858624", "MEAN_MOTION": 2.13103359, "ECCENTRICITY": 0.00028383, "INCLINATION": 64.8981, "RA_OF_ASC_NODE": 77.4578, "ARG_OF_PERICENTER": 298.5783, "MEAN_ANOMALY": 37.1692, "EPHEMERIS_TYPE": 0, "CLASSIFICATION_TYPE": "U", "NORAD_CAT_ID": 36111, "ELEMENT_SET_NO": 999, "REV_AT_EPOCH": 12437, "BSTAR": 0, "MEAN_MOTION_DOT": -1.7e-07, "MEAN_MOTION_DDOT": 0}, "tle": {"line1": "1 36111U 09070A   25343.24160716 -.00000017  00000+0  00000+0 0  9999", "line2": "2 36111  64.8981  77.4578 0002838 298.5783  37.1692  2.13103359124373"}}, "geometry": {"type": "Point", "coordinates": [7.958090458973841, -63.42727123048571]}}, {"type": "Feature", "properties": {"norad_id": 36112, "name": "COSMOS 2457 (733)", "group": "gnss", "lat": 42.42774873801556, "lon": 102.49653737872697, "alt_km": 19129.11540340228, "timestamp": "2025-12-13T20:38:51.245572+00:00", "meta": {"OBJECT_NAME": "COSMOS 2457 (733)", "OBJECT_ID": "2009-070B", "EPOCH": "2025-12-13T01:04:44.050656", "MEAN_MOTION": 2.13100824, "ECCENTRICITY": 0.00047194, "INCLINATION": 64.8858, "RA_OF_ASC_NODE": 77.1749, "ARG_OF_PERICENTER": 157.6277, "MEAN_ANOMALY": 345.0739, "EPHEMERIS_TYPE": 0, "CLASSIFICATION_TYPE": "U", "NORAD_CAT_ID": 36112, "ELEMENT_SET_NO": 999, "REV_AT_EPOCH": 12446, "BSTAR": 0, "MEAN_MOTION_DOT": -4.9e-07, "MEAN_MOTION_DDOT": 0}, "tle": {"line1": "1 36112U 09070B   25347.04495429 -.00000049  00000+0  00000+0 0  9999", "line2": "2 36112  64.8858  77.1749 0004719 157.6277 345.0739  2.13100824124464"}}, "geometry": {"type": "Point", "coordinates": [102.49653737872697, 42.42774873801556]}}]}